STARLINK-35569          
1 66471U 25262R   25334.83336806 -.02019860  00000+0 -17225-1 0  9990
2 66471  42.9991 141.1317 0001354 269.5534 345.7653 15.71705376  3722
STARLINK-35567          
1 66472U 25262S   25334.83336806 -.02016171  00000+0 -17192-1 0  9996
2 66472  42.9992 141.1221 0001389 273.0352 346.1201 15.71701515  3729
STARLINK-35568          
1 66473U 25262T   25334.83336806 -.02013417  00000+0 -17167-1 0  9999
2 66473  42.9992 141.1170 0001325 275.9837 345.0874 15.71699439  3727
STARLINK-35620          
1 66474U 25262U   25334.83336806 -.02024708  00000+0 -17268-1 0  9997
2 66474  42.9991 141.1120 0001452 270.3646 352.6190 15.71709698  3724
STARLINK-35538          
1 66475U 25262V   25334.83336806 -.02038569  00000+0 -17399-1 0  9993
2 66475  42.9991 141.1077 0001458 273.0736 351.8320 15.71714021  3724
STARLINK-35372          
1 66476U 25262W   25334.83336806 -.02014460  00000+0 -17177-1 0  9992
2 66476  42.9990 141.1024 0001204 270.5569 356.2647 15.71701133  3610
STARLINK-35354          
1 66477U 25262X   25334.83336806 -.02015805  00000+0 -17187-1 0  9998
2 66477  42.9991 141.0926 0001422 270.1401   0.5164 15.71702348  3729
STARLINK-35283          
1 66478U 25262Y   25334.83336806 -.02037528  00000+0 -17389-1 0  9999
2 66478  42.9989 141.0869 0001475 272.6816 359.8925 15.71713547  3726
STARLINK-35581          
1 66479U 25262Z   25334.83336806 -.02016552  00000+0 -17194-1 0  9998
2 66479  42.9991 141.0967 0001497 272.3173 356.4209 15.71702825  3721
STARLINK-35670          
1 66480U 25262AA  25334.83336806 -.02014132  00000+0 -17173-1 0  9999
2 66480  42.9991 141.0815 0001462 274.6709 359.8193 15.71700101  3721
STARLINK-35698          
1 66481U 25262AB  25334.83336806 -.02010799  00000+0 -17141-1 0  9990
2 66481  42.9990 141.0769 0001385 271.9987   4.4087 15.71699309  3723
STARLINK-35648          
1 66482U 25262AC  25334.83336806 -.02016219  00000+0 -17193-1 0  9991
2 66482  42.9990 141.0726 0001426 276.8183   1.5097 15.71699760  3567
