CCSDS_OMM_VERS = 2.0
CREATION_DATE  = 
ORIGINATOR     = 

OBJECT_NAME    = STARLINK-35569
OBJECT_ID      = 2025-262R
CENTER_NAME    = EARTH
REF_FRAME      = TEME
TIME_SYSTEM    = UTC
MEAN_ELEMENT_THEORY = SGP/SGP4

EPOCH          = 2025-11-30T20:00:03.000384
MEAN_MOTION    = 15.71705376
ECCENTRICITY   = .0001354
INCLINATION    = 42.9991
RA_OF_ASC_NODE = 141.1317
ARG_OF_PERICENTER = 269.5534
MEAN_ANOMALY   = 345.7653

EPHEMERIS_TYPE = 0
CLASSIFICATION_TYPE = U
NORAD_CAT_ID   = 66471
ELEMENT_SET_NO = 999
REV_AT_EPOCH   = 372
BSTAR          = -.17225E-1
MEAN_MOTION_DOT = -.201986E-1
MEAN_MOTION_DDOT = 0

CCSDS_OMM_VERS = 2.0
CREATION_DATE  = 
ORIGINATOR     = 

OBJECT_NAME    = STARLINK-35567
OBJECT_ID      = 2025-262S
CENTER_NAME    = EARTH
REF_FRAME      = TEME
TIME_SYSTEM    = UTC
MEAN_ELEMENT_THEORY = SGP/SGP4

EPOCH          = 2025-11-30T20:00:03.000384
MEAN_MOTION    = 15.71701515
ECCENTRICITY   = .0001389
INCLINATION    = 42.9992
RA_OF_ASC_NODE = 141.1221
ARG_OF_PERICENTER = 273.0352
MEAN_ANOMALY   = 346.1201

EPHEMERIS_TYPE = 0
CLASSIFICATION_TYPE = U
NORAD_CAT_ID   = 66472
ELEMENT_SET_NO = 999
REV_AT_EPOCH   = 372
BSTAR          = -.17192E-1
MEAN_MOTION_DOT = -.2016171E-1
MEAN_MOTION_DDOT = 0

CCSDS_OMM_VERS = 2.0
CREATION_DATE  = 
ORIGINATOR     = 

OBJECT_NAME    = STARLINK-35568
OBJECT_ID      = 2025-262T
CENTER_NAME    = EARTH
REF_FRAME      = TEME
TIME_SYSTEM    = UTC
MEAN_ELEMENT_THEORY = SGP/SGP4

EPOCH          = 2025-11-30T20:00:03.000384
MEAN_MOTION    = 15.71699439
ECCENTRICITY   = .0001325
INCLINATION    = 42.9992
RA_OF_ASC_NODE = 141.1170
ARG_OF_PERICENTER = 275.9837
MEAN_ANOMALY   = 345.0874

EPHEMERIS_TYPE = 0
CLASSIFICATION_TYPE = U
NORAD_CAT_ID   = 66473
ELEMENT_SET_NO = 999
REV_AT_EPOCH   = 372
BSTAR          = -.17167E-1
MEAN_MOTION_DOT = -.2013417E-1
MEAN_MOTION_DDOT = 0

CCSDS_OMM_VERS = 2.0
CREATION_DATE  = 
ORIGINATOR     = 

OBJECT_NAME    = STARLINK-35620
OBJECT_ID      = 2025-262U
CENTER_NAME    = EARTH
REF_FRAME      = TEME
TIME_SYSTEM    = UTC
MEAN_ELEMENT_THEORY = SGP/SGP4

EPOCH          = 2025-11-30T20:00:03.000384
MEAN_MOTION    = 15.71709698
ECCENTRICITY   = .0001452
INCLINATION    = 42.9991
RA_OF_ASC_NODE = 141.1120
ARG_OF_PERICENTER = 270.3646
MEAN_ANOMALY   = 352.6190

EPHEMERIS_TYPE = 0
CLASSIFICATION_TYPE = U
NORAD_CAT_ID   = 66474
ELEMENT_SET_NO = 999
REV_AT_EPOCH   = 372
BSTAR          = -.17268E-1
MEAN_MOTION_DOT = -.2024708E-1
MEAN_MOTION_DDOT = 0

CCSDS_OMM_VERS = 2.0
CREATION_DATE  = 
ORIGINATOR     = 

OBJECT_NAME    = STARLINK-35538
OBJECT_ID      = 2025-262V
CENTER_NAME    = EARTH
REF_FRAME      = TEME
TIME_SYSTEM    = UTC
MEAN_ELEMENT_THEORY = SGP/SGP4

EPOCH          = 2025-11-30T20:00:03.000384
MEAN_MOTION    = 15.71714021
ECCENTRICITY   = .0001458
INCLINATION    = 42.9991
RA_OF_ASC_NODE = 141.1077
ARG_OF_PERICENTER = 273.0736
MEAN_ANOMALY   = 351.8320

EPHEMERIS_TYPE = 0
CLASSIFICATION_TYPE = U
NORAD_CAT_ID   = 66475
ELEMENT_SET_NO = 999
REV_AT_EPOCH   = 372
BSTAR          = -.17399E-1
MEAN_MOTION_DOT = -.2038569E-1
MEAN_MOTION_DDOT = 0

CCSDS_OMM_VERS = 2.0
CREATION_DATE  = 
ORIGINATOR     = 

OBJECT_NAME    = STARLINK-35372
OBJECT_ID      = 2025-262W
CENTER_NAME    = EARTH
REF_FRAME      = TEME
TIME_SYSTEM    = UTC
MEAN_ELEMENT_THEORY = SGP/SGP4

EPOCH          = 2025-11-30T20:00:03.000384
MEAN_MOTION    = 15.71701133
ECCENTRICITY   = .0001204
INCLINATION    = 42.9990
RA_OF_ASC_NODE = 141.1024
ARG_OF_PERICENTER = 270.5569
MEAN_ANOMALY   = 356.2647

EPHEMERIS_TYPE = 0
CLASSIFICATION_TYPE = U
NORAD_CAT_ID   = 66476
ELEMENT_SET_NO = 999
REV_AT_EPOCH   = 361
BSTAR          = -.17177E-1
MEAN_MOTION_DOT = -.201446E-1
MEAN_MOTION_DDOT = 0

CCSDS_OMM_VERS = 2.0
CREATION_DATE  = 
ORIGINATOR     = 

OBJECT_NAME    = STARLINK-35354
OBJECT_ID      = 2025-262X
CENTER_NAME    = EARTH
REF_FRAME      = TEME
TIME_SYSTEM    = UTC
MEAN_ELEMENT_THEORY = SGP/SGP4

EPOCH          = 2025-11-30T20:00:03.000384
MEAN_MOTION    = 15.71702348
ECCENTRICITY   = .0001422
INCLINATION    = 42.9991
RA_OF_ASC_NODE = 141.0926
ARG_OF_PERICENTER = 270.1401
MEAN_ANOMALY   = 0.5164

EPHEMERIS_TYPE = 0
CLASSIFICATION_TYPE = U
NORAD_CAT_ID   = 66477
ELEMENT_SET_NO = 999
REV_AT_EPOCH   = 372
BSTAR          = -.17187E-1
MEAN_MOTION_DOT = -.2015805E-1
MEAN_MOTION_DDOT = 0

CCSDS_OMM_VERS = 2.0
CREATION_DATE  = 
ORIGINATOR     = 

OBJECT_NAME    = STARLINK-35283
OBJECT_ID      = 2025-262Y
CENTER_NAME    = EARTH
REF_FRAME      = TEME
TIME_SYSTEM    = UTC
MEAN_ELEMENT_THEORY = SGP/SGP4

EPOCH          = 2025-11-30T20:00:03.000384
MEAN_MOTION    = 15.71713547
ECCENTRICITY   = .0001475
INCLINATION    = 42.9989
RA_OF_ASC_NODE = 141.0869
ARG_OF_PERICENTER = 272.6816
MEAN_ANOMALY   = 359.8925

EPHEMERIS_TYPE = 0
CLASSIFICATION_TYPE = U
NORAD_CAT_ID   = 66478
ELEMENT_SET_NO = 999
REV_AT_EPOCH   = 372
BSTAR          = -.17389E-1
MEAN_MOTION_DOT = -.2037528E-1
MEAN_MOTION_DDOT = 0

CCSDS_OMM_VERS = 2.0
CREATION_DATE  = 
ORIGINATOR     = 

OBJECT_NAME    = STARLINK-35581
OBJECT_ID      = 2025-262Z
CENTER_NAME    = EARTH
REF_FRAME      = TEME
TIME_SYSTEM    = UTC
MEAN_ELEMENT_THEORY = SGP/SGP4

EPOCH          = 2025-11-30T20:00:03.000384
MEAN_MOTION    = 15.71702825
ECCENTRICITY   = .0001497
INCLINATION    = 42.9991
RA_OF_ASC_NODE = 141.0967
ARG_OF_PERICENTER = 272.3173
MEAN_ANOMALY   = 356.4209

EPHEMERIS_TYPE = 0
CLASSIFICATION_TYPE = U
NORAD_CAT_ID   = 66479
ELEMENT_SET_NO = 999
REV_AT_EPOCH   = 372
BSTAR          = -.17194E-1
MEAN_MOTION_DOT = -.2016552E-1
MEAN_MOTION_DDOT = 0

CCSDS_OMM_VERS = 2.0
CREATION_DATE  = 
ORIGINATOR     = 

OBJECT_NAME    = STARLINK-35670
OBJECT_ID      = 2025-262AA
CENTER_NAME    = EARTH
REF_FRAME      = TEME
TIME_SYSTEM    = UTC
MEAN_ELEMENT_THEORY = SGP/SGP4

EPOCH          = 2025-11-30T20:00:03.000384
MEAN_MOTION    = 15.71700101
ECCENTRICITY   = .0001462
INCLINATION    = 42.9991
RA_OF_ASC_NODE = 141.0815
ARG_OF_PERICENTER = 274.6709
MEAN_ANOMALY   = 359.8193

EPHEMERIS_TYPE = 0
CLASSIFICATION_TYPE = U
NORAD_CAT_ID   = 66480
ELEMENT_SET_NO = 999
REV_AT_EPOCH   = 372
BSTAR          = -.17173E-1
MEAN_MOTION_DOT = -.2014132E-1
MEAN_MOTION_DDOT = 0

CCSDS_OMM_VERS = 2.0
CREATION_DATE  = 
ORIGINATOR     = 

OBJECT_NAME    = STARLINK-35698
OBJECT_ID      = 2025-262AB
CENTER_NAME    = EARTH
REF_FRAME      = TEME
TIME_SYSTEM    = UTC
MEAN_ELEMENT_THEORY = SGP/SGP4

EPOCH          = 2025-11-30T20:00:03.000384
MEAN_MOTION    = 15.71699309
ECCENTRICITY   = .0001385
INCLINATION    = 42.9990
RA_OF_ASC_NODE = 141.0769
ARG_OF_PERICENTER = 271.9987
MEAN_ANOMALY   = 4.4087

EPHEMERIS_TYPE = 0
CLASSIFICATION_TYPE = U
NORAD_CAT_ID   = 66481
ELEMENT_SET_NO = 999
REV_AT_EPOCH   = 372
BSTAR          = -.17141E-1
MEAN_MOTION_DOT = -.2010799E-1
MEAN_MOTION_DDOT = 0

CCSDS_OMM_VERS = 2.0
CREATION_DATE  = 
ORIGINATOR     = 

OBJECT_NAME    = STARLINK-35648
OBJECT_ID      = 2025-262AC
CENTER_NAME    = EARTH
REF_FRAME      = TEME
TIME_SYSTEM    = UTC
MEAN_ELEMENT_THEORY = SGP/SGP4

EPOCH          = 2025-11-30T20:00:03.000384
MEAN_MOTION    = 15.71699760
ECCENTRICITY   = .0001426
INCLINATION    = 42.9990
RA_OF_ASC_NODE = 141.0726
ARG_OF_PERICENTER = 276.8183
MEAN_ANOMALY   = 1.5097

EPHEMERIS_TYPE = 0
CLASSIFICATION_TYPE = U
NORAD_CAT_ID   = 66482
ELEMENT_SET_NO = 999
REV_AT_EPOCH   = 356
BSTAR          = -.17193E-1
MEAN_MOTION_DOT = -.2016219E-1
MEAN_MOTION_DDOT = 0

